{
    "links": {
        "self": "http://www.neowsapp.com/rest/v1/neo/3842889?api_key=iIulBulltgU6a56xZRHN4H3l9WmuAYTsLGpBGhQ2"
    },
    "id": "3842889",
    "neo_reference_id": "3842889",
    "name": "(2019 LT5)",
    "designation": "2019 LT5",
    "nasa_jpl_url": "http://ssd.jpl.nasa.gov/sbdb.cgi?sstr=3842889",
    "absolute_magnitude_h": 22.4,
    "estimated_diameter": {
        "kilometers": {
            "estimated_diameter_min": 0.0880146521,
            "estimated_diameter_max": 0.1968067451
        },
        "meters": {
            "estimated_diameter_min": 88.0146520901,
            "estimated_diameter_max": 196.8067450894
        },
        "miles": {
            "estimated_diameter_min": 0.0546897524,
            "estimated_diameter_max": 0.122290004
        },
        "feet": {
            "estimated_diameter_min": 288.7619911632,
            "estimated_diameter_max": 645.6914415591
        }
    },
    "is_potentially_hazardous_asteroid": false,
    "close_approach_data": [
        {
            "close_approach_date": "2019-05-16",
            "close_approach_date_full": "2019-May-16 05:45",
            "epoch_date_close_approach": 1557985500000,
            "relative_velocity": {
                "kilometers_per_second": "10.9214771952",
                "kilometers_per_hour": "39317.3179027142",
                "miles_per_hour": "24430.2523379393"
            },
            "miss_distance": {
                "astronomical": "0.1193165163",
                "lunar": "46.4141248407",
                "kilometers": "17849496.694300281",
                "miles": "11091162.9417786378"
            },
            "orbiting_body": "Earth"
        }
    ],
    "orbital_data": {
        "orbit_id": "1",
        "orbit_determination_date": "2019-06-19 10:12:06",
        "first_observation_date": "2019-06-03",
        "last_observation_date": "2019-06-07",
        "data_arc_in_days": 4,
        "observations_used": 28,
        "orbit_uncertainty": "8",
        "minimum_orbit_intersection": ".00679033",
        "jupiter_tisserand_invariant": "4.275",
        "epoch_osculation": "2458638.5",
        "eccentricity": ".5205771852372857",
        "semi_major_axis": "1.556296525947159",
        "inclination": "4.344709755860849",
        "ascending_node_longitude": "72.20518217111965",
        "orbital_period": "709.1481085309973",
        "perihelion_distance": ".7461240610750207",
        "perihelion_argument": "98.08486995991639",
        "aphelion_distance": "2.366468990819298",
        "perihelion_time": "2458574.355202961721",
        "mean_anomaly": "32.56319329627186",
        "mean_motion": ".5076513575503165",
        "equinox": "J2000",
        "orbit_class": {
            "orbit_class_type": "APO",
            "orbit_class_description": "Near-Earth asteroid orbits which cross the Earth’s orbit similar to that of 1862 Apollo",
            "orbit_class_range": "a (semi-major axis) > 1.0 AU; q (perihelion) < 1.017 AU"
        }
    },
    "is_sentry_object": false
}